BRO-4                   
1 49066U 21073A   23258.76300048  .00014764  00000+0  69580-3 0  9998
2 49066  97.4804 330.4369 0024542 148.7467 211.5233 15.19329956114778
RADCUBE                 
1 49067U 21073B   23258.16017292  .00031860  00000+0  12916-2 0  9995
2 49067  97.4764 330.6464 0020322 155.9287 204.2905 15.24384747114729
SUNSTORM                
1 49068U 21073C   23258.75273839  .00023162  00000+0  97103-3 0  9990
2 49068  97.4789 330.8994 0020791 155.4487 204.7744 15.23312032114783
LEDSAT                  
1 49069U 21073D   23258.74164003  .00011009  00000+0  57542-3 0  9992
2 49069  97.4752 328.1485 0023761 163.9444 196.2547 15.15803080114613
PLEIADES NEO 4          
1 49070U 21073E   23258.72846392  .00001965  00000+0  25632-3 0  9995
2 49070  97.8959 331.9190 0001232 100.3900 259.7452 14.81667217112489
TIANHUI 2-02A           
1 49071U 21074A   23258.71316081  .00002904  00000+0  15149-3 0  9999
2 49071  97.4645 260.3694 0001660 101.7100 258.4319 15.16736646114879
TIANHUI 2-02B           
1 49072U 21074B   23258.51524245  .00002840  00000+0  14824-3 0  9999
2 49072  97.4644 260.1701 0001915  86.4532 273.6920 15.16735291114835
ONEWEB-0285             
1 49075U 21075A   23258.34278202  .00000590  00000+0  16051-2 0  9996
2 49075  87.9062 190.6155 0002029  74.4963 285.6389 13.12442873103271
ONEWEB-0286             
1 49076U 21075B   23258.31099006 -.00000287  00000+0 -83376-3 0  9997
2 49076  87.9065 190.6302 0001467  78.1022 282.0271 13.12447488102627
ONEWEB-0287             
1 49077U 21075C   23258.39394556  .00001293  00000+0  32956-2 0  9997
2 49077  87.9153 205.7384 0001908  70.2948 289.8390 13.17644317101175
ONEWEB-0288             
1 49078U 21075D   23258.37240872 -.00000310  00000+0 -89839-3 0  9991
2 49078  87.9065 190.6229 0001847  72.7426 287.3905 13.12438290103250
ONEWEB-0289             
1 49079U 21075E   23258.42135417  .00000114  00000+0  26030-3 0  9990
2 49079  87.9231 205.7217 0002020  82.4304 277.7057 13.17651890101750
ONEWEB-0290             
1 49080U 21075F   23258.40448951  .00000058  00000+0  11716-3 0  9992
2 49080  87.9154 205.7312 0002145  69.8531 290.2831 13.17651373101162
ONEWEB-0291             
1 49081U 21075G   23258.38762267  .00000140  00000+0  32843-3 0  9995
2 49081  87.9222 205.7347 0001926  68.2660 291.8676 13.17649460101156
ONEWEB-0293             
1 49082U 21075H   23258.41290956  .00000021  00000+0  21939-4 0  9994
2 49082  87.9232 205.7207 0001995  70.9118 289.2230 13.17652201101184
ONEWEB-0294             
1 49083U 21075J   23258.37770302 -.00000324  00000+0 -93700-3 0  9990
2 49083  87.9066 190.6199 0002291  69.0587 291.0787 13.12444250102649
ONEWEB-0295             
1 49084U 21075K   23258.33910615  .00000320  00000+0  79123-3 0  9997
2 49084  87.9236 205.7047 0001632  62.7528 297.3770 13.17650023101138
