[{"OBJECT_NAME":"BRO-4","OBJECT_ID":"2021-073A","EPOCH":"2023-09-15T18:18:43.241472","MEAN_MOTION":15.19329956,"ECCENTRICITY":0.0024542,"INCLINATION":97.4804,"RA_OF_ASC_NODE":330.4369,"ARG_OF_PERICENTER":148.7467,"MEAN_ANOMALY":211.5233,"EPHEMERIS_TYPE":0,"CLASSIFICATION_TYPE":"U","NORAD_CAT_ID":49066,"ELEMENT_SET_NO":999,"REV_AT_EPOCH":11477,"BSTAR":0.0006958,"MEAN_MOTION_DOT":0.00014764,"MEAN_MOTION_DDOT":0},{"OBJECT_NAME":"RADCUBE","OBJECT_ID":"2021-073B","EPOCH":"2023-09-15T03:50:38.940288","MEAN_MOTION":15.24384747,"ECCENTRICITY":0.0020322,"INCLINATION":97.4764,"RA_OF_ASC_NODE":330.6464,"ARG_OF_PERICENTER":155.9287,"MEAN_ANOMALY":204.2905,"EPHEMERIS_TYPE":0,"CLASSIFICATION_TYPE":"U","NORAD_CAT_ID":49067,"ELEMENT_SET_NO":999,"REV_AT_EPOCH":11472,"BSTAR":0.0012916,"MEAN_MOTION_DOT":0.0003186,"MEAN_MOTION_DDOT":0},{"OBJECT_NAME":"SUNSTORM","OBJECT_ID":"2021-073C","EPOCH":"2023-09-15T18:03:56.596896","MEAN_MOTION":15.23312032,"ECCENTRICITY":0.0020791,"INCLINATION":97.4789,"RA_OF_ASC_NODE":330.8994,"ARG_OF_PERICENTER":155.4487,"MEAN_ANOMALY":204.7744,"EPHEMERIS_TYPE":0,"CLASSIFICATION_TYPE":"U","NORAD_CAT_ID":49068,"ELEMENT_SET_NO":999,"REV_AT_EPOCH":11478,"BSTAR":0.00097103,"MEAN_MOTION_DOT":0.00023162,"MEAN_MOTION_DDOT":0},{"OBJECT_NAME":"LEDSAT","OBJECT_ID":"2021-073D","EPOCH":"2023-09-15T17:47:57.698592","MEAN_MOTION":15.1580308,"ECCENTRICITY":0.0023761,"INCLINATION":97.4752,"RA_OF_ASC_NODE":328.1485,"ARG_OF_PERICENTER":163.9444,"MEAN_ANOMALY":196.2547,"EPHEMERIS_TYPE":0,"CLASSIFICATION_TYPE":"U","NORAD_CAT_ID":49069,"ELEMENT_SET_NO":999,"REV_AT_EPOCH":11461,"BSTAR":0.00057542,"MEAN_MOTION_DOT":0.00011009,"MEAN_MOTION_DDOT":0},{"OBJECT_NAME":"PLEIADES NEO 4","OBJECT_ID":"2021-073E","EPOCH":"2023-09-15T17:28:59.282688","MEAN_MOTION":14.81667217,"ECCENTRICITY":0.0001232,"INCLINATION":97.8959,"RA_OF_ASC_NODE":331.919,"ARG_OF_PERICENTER":100.39,"MEAN_ANOMALY":259.7452,"EPHEMERIS_TYPE":0,"CLASSIFICATION_TYPE":"U","NORAD_CAT_ID":49070,"ELEMENT_SET_NO":999,"REV_AT_EPOCH":11248,"BSTAR":0.00025632,"MEAN_MOTION_DOT":1.965e-5,"MEAN_MOTION_DDOT":0},{"OBJECT_NAME":"TIANHUI 2-02A","OBJECT_ID":"2021-074A","EPOCH":"2023-09-15T17:06:57.093984","MEAN_MOTION":15.16736646,"ECCENTRICITY":0.000166,"INCLINATION":97.4645,"RA_OF_ASC_NODE":260.3694,"ARG_OF_PERICENTER":101.71,"MEAN_ANOMALY":258.4319,"EPHEMERIS_TYPE":0,"CLASSIFICATION_TYPE":"U","NORAD_CAT_ID":49071,"ELEMENT_SET_NO":999,"REV_AT_EPOCH":11487,"BSTAR":0.00015149,"MEAN_MOTION_DOT":2.904e-5,"MEAN_MOTION_DDOT":0},{"OBJECT_NAME":"TIANHUI 2-02B","OBJECT_ID":"2021-074B","EPOCH":"2023-09-15T12:21:56.947680","MEAN_MOTION":15.16735291,"ECCENTRICITY":0.0001915,"INCLINATION":97.4644,"RA_OF_ASC_NODE":260.1701,"ARG_OF_PERICENTER":86.4532,"MEAN_ANOMALY":273.692,"EPHEMERIS_TYPE":0,"CLASSIFICATION_TYPE":"U","NORAD_CAT_ID":49072,"ELEMENT_SET_NO":999,"REV_AT_EPOCH":11483,"BSTAR":0.00014824,"MEAN_MOTION_DOT":2.84e-5,"MEAN_MOTION_DDOT":0},{"OBJECT_NAME":"ONEWEB-0285","OBJECT_ID":"2021-075A","EPOCH":"2023-09-15T08:13:36.366528","MEAN_MOTION":13.12442873,"ECCENTRICITY":0.0002029,"INCLINATION":87.9062,"RA_OF_ASC_NODE":190.6155,"ARG_OF_PERICENTER":74.4963,"MEAN_ANOMALY":285.6389,"EPHEMERIS_TYPE":0,"CLASSIFICATION_TYPE":"U","NORAD_CAT_ID":49075,"ELEMENT_SET_NO":999,"REV_AT_EPOCH":10327,"BSTAR":0.0016051,"MEAN_MOTION_DOT":5.9e-6,"MEAN_MOTION_DDOT":0},{"OBJECT_NAME":"ONEWEB-0286","OBJECT_ID":"2021-075B","EPOCH":"2023-09-15T07:27:49.541184","MEAN_MOTION":13.12447488,"ECCENTRICITY":0.0001467,"INCLINATION":87.9065,"RA_OF_ASC_NODE":190.6302,"ARG_OF_PERICENTER":78.1022,"MEAN_ANOMALY":282.0271,"EPHEMERIS_TYPE":0,"CLASSIFICATION_TYPE":"U","NORAD_CAT_ID":49076,"ELEMENT_SET_NO":999,"REV_AT_EPOCH":10262,"BSTAR":-0.00083376,"MEAN_MOTION_DOT":-2.87e-6,"MEAN_MOTION_DDOT":0},{"OBJECT_NAME":"ONEWEB-0287","OBJECT_ID":"2021-075C","EPOCH":"2023-09-15T09:27:16.896384","MEAN_MOTION":13.17644317,"ECCENTRICITY":0.0001908,"INCLINATION":87.9153,"RA_OF_ASC_NODE":205.7384,"ARG_OF_PERICENTER":70.2948,"MEAN_ANOMALY":289.839,"EPHEMERIS_TYPE":0,"CLASSIFICATION_TYPE":"U","NORAD_CAT_ID":49077,"ELEMENT_SET_NO":999,"REV_AT_EPOCH":10117,"BSTAR":0.0032956,"MEAN_MOTION_DOT":1.293e-5,"MEAN_MOTION_DDOT":0},{"OBJECT_NAME":"ONEWEB-0288","OBJECT_ID":"2021-075D","EPOCH":"2023-09-15T08:56:16.113408","MEAN_MOTION":13.1243829,"ECCENTRICITY":0.0001847,"INCLINATION":87.9065,"RA_OF_ASC_NODE":190.6229,"ARG_OF_PERICENTER":72.7426,"MEAN_ANOMALY":287.3905,"EPHEMERIS_TYPE":0,"CLASSIFICATION_TYPE":"U","NORAD_CAT_ID":49078,"ELEMENT_SET_NO":999,"REV_AT_EPOCH":10325,"BSTAR":-0.00089839,"MEAN_MOTION_DOT":-3.1e-6,"MEAN_MOTION_DDOT":0},{"OBJECT_NAME":"ONEWEB-0289","OBJECT_ID":"2021-075E","EPOCH":"2023-09-15T10:06:45.000288","MEAN_MOTION":13.1765189,"ECCENTRICITY":0.000202,"INCLINATION":87.9231,"RA_OF_ASC_NODE":205.7217,"ARG_OF_PERICENTER":82.4304,"MEAN_ANOMALY":277.7057,"EPHEMERIS_TYPE":0,"CLASSIFICATION_TYPE":"U","NORAD_CAT_ID":49079,"ELEMENT_SET_NO":999,"REV_AT_EPOCH":10175,"BSTAR":0.0002603,"MEAN_MOTION_DOT":1.14e-6,"MEAN_MOTION_DDOT":0},{"OBJECT_NAME":"ONEWEB-0290","OBJECT_ID":"2021-075F","EPOCH":"2023-09-15T09:42:27.893664","MEAN_MOTION":13.17651373,"ECCENTRICITY":0.0002145,"INCLINATION":87.9154,"RA_OF_ASC_NODE":205.7312,"ARG_OF_PERICENTER":69.8531,"MEAN_ANOMALY":290.2831,"EPHEMERIS_TYPE":0,"CLASSIFICATION_TYPE":"U","NORAD_CAT_ID":49080,"ELEMENT_SET_NO":999,"REV_AT_EPOCH":10116,"BSTAR":0.00011716,"MEAN_MOTION_DOT":5.8e-7,"MEAN_MOTION_DDOT":0},{"OBJECT_NAME":"ONEWEB-0291","OBJECT_ID":"2021-075G","EPOCH":"2023-09-15T09:18:10.598688","MEAN_MOTION":13.1764946,"ECCENTRICITY":0.0001926,"INCLINATION":87.9222,"RA_OF_ASC_NODE":205.7347,"ARG_OF_PERICENTER":68.266,"MEAN_ANOMALY":291.8676,"EPHEMERIS_TYPE":0,"CLASSIFICATION_TYPE":"U","NORAD_CAT_ID":49081,"ELEMENT_SET_NO":999,"REV_AT_EPOCH":10115,"BSTAR":0.00032843,"MEAN_MOTION_DOT":1.4e-6,"MEAN_MOTION_DDOT":0},{"OBJECT_NAME":"ONEWEB-0293","OBJECT_ID":"2021-075H","EPOCH":"2023-09-15T09:54:35.385984","MEAN_MOTION":13.17652201,"ECCENTRICITY":0.0001995,"INCLINATION":87.9232,"RA_OF_ASC_NODE":205.7207,"ARG_OF_PERICENTER":70.9118,"MEAN_ANOMALY":289.223,"EPHEMERIS_TYPE":0,"CLASSIFICATION_TYPE":"U","NORAD_CAT_ID":49082,"ELEMENT_SET_NO":999,"REV_AT_EPOCH":10118,"BSTAR":2.1939e-5,"MEAN_MOTION_DOT":2.1e-7,"MEAN_MOTION_DDOT":0},{"OBJECT_NAME":"ONEWEB-0294","OBJECT_ID":"2021-075J","EPOCH":"2023-09-15T09:03:53.540928","MEAN_MOTION":13.1244425,"ECCENTRICITY":0.0002291,"INCLINATION":87.9066,"RA_OF_ASC_NODE":190.6199,"ARG_OF_PERICENTER":69.0587,"MEAN_ANOMALY":291.0787,"EPHEMERIS_TYPE":0,"CLASSIFICATION_TYPE":"U","NORAD_CAT_ID":49083,"ELEMENT_SET_NO":999,"REV_AT_EPOCH":10264,"BSTAR":-0.000937,"MEAN_MOTION_DOT":-3.24e-6,"MEAN_MOTION_DDOT":0},{"OBJECT_NAME":"ONEWEB-0295","OBJECT_ID":"2021-075K","EPOCH":"2023-09-15T08:08:18.771360","MEAN_MOTION":13.17650023,"ECCENTRICITY":0.0001632,"INCLINATION":87.9236,"RA_OF_ASC_NODE":205.7047,"ARG_OF_PERICENTER":62.7528,"MEAN_ANOMALY":297.377,"EPHEMERIS_TYPE":0,"CLASSIFICATION_TYPE":"U","NORAD_CAT_ID":49084,"ELEMENT_SET_NO":999,"REV_AT_EPOCH":10113,"BSTAR":0.00079123,"MEAN_MOTION_DOT":3.2e-6,"MEAN_MOTION_DDOT":0}]
